STARLINK-36449          
1 67308U 26002D   26024.50001156 -.01995747  00000+0 -17247-1 0  9991
2 67308  42.9993 217.9238 0001567 273.4442 139.5555 15.71354772  4378
STARLINK-36482          
1 67309U 26002E   26023.72706255  .00013168  00000+0  88720-4 0  9999
2 67309  42.9984 222.5758 0001759 293.1820  66.8864 15.75031822  4164
STARLINK-36491          
1 67310U 26002F   26023.91970189  .00667697  00000+0  40088-2 0  9996
2 67310  43.0000 221.4420 0002338 281.6938  78.3669 15.75076753  4193
STARLINK-36495          
1 67311U 26002G   26024.50001156 -.01993119  00000+0 -17222-1 0  9999
2 67311  42.9991 217.9187 0001600 269.0438 145.8739 15.71352863  4471
STARLINK-36485          
1 67312U 26002H   26023.85494607 -.00555616  00000+0 -39428-2 0  9992
2 67312  42.9990 221.8148 0002238 295.4920  64.5717 15.74534924  4183
STARLINK-36445          
1 67313U 26002J   26023.91804642 -.00340753  00000+0 -23590-2 0  9991
2 67313  42.9991 221.4278 0002323 276.7165  83.3440 15.74512661  4358
STARLINK-36476          
1 67314U 26002K   26024.50001156 -.01997073  00000+0 -17259-1 0  9995
2 67314  42.9993 217.9051 0001469 269.3115 151.3564 15.71356016  4319
STARLINK-36463          
1 67315U 26002L   26024.50001156 -.01981309  00000+0 -17109-1 0  9995
2 67315  42.9990 217.8951 0001607 273.8964 150.6017 15.71348658  4375
STARLINK-36461          
1 67316U 26002M   26024.50001156 -.02004167  00000+0 -17324-1 0  9994
2 67316  42.9990 217.8900 0001659 270.7299 155.6866 15.71361275  4472
STARLINK-36450          
1 67317U 26002N   26024.50001156 -.02223104  00000+0 -19403-1 0  9999
2 67317  42.9989 217.8852 0001360 261.5576 166.7795 15.71491937  4475
STARLINK-36498          
1 67318U 26002P   26024.50001156 -.01999967  00000+0 -17284-1 0  9991
2 67318  42.9993 217.8752 0001606 275.9699 156.1953 15.71359644  4374
STARLINK-36470          
1 67319U 26002Q   26024.50001156 -.02002862  00000+0 -17312-1 0  9994
2 67319  42.9990 217.8804 0001616 270.3437 159.9086 15.71359566  4371
