CCSDS_OMM_VERS = 2.0
CREATION_DATE  = 
ORIGINATOR     = 

OBJECT_NAME    = STARLINK-36449
OBJECT_ID      = 2026-002D
CENTER_NAME    = EARTH
REF_FRAME      = TEME
TIME_SYSTEM    = UTC
MEAN_ELEMENT_THEORY = SGP/SGP4

EPOCH          = 2026-01-24T12:00:00.998784
MEAN_MOTION    = 15.71354772
ECCENTRICITY   = .0001567
INCLINATION    = 42.9993
RA_OF_ASC_NODE = 217.9238
ARG_OF_PERICENTER = 273.4442
MEAN_ANOMALY   = 139.5555

EPHEMERIS_TYPE = 0
CLASSIFICATION_TYPE = U
NORAD_CAT_ID   = 67308
ELEMENT_SET_NO = 999
REV_AT_EPOCH   = 437
BSTAR          = -.17247E-1
MEAN_MOTION_DOT = -.1995747E-1
MEAN_MOTION_DDOT = 0

CCSDS_OMM_VERS = 2.0
CREATION_DATE  = 
ORIGINATOR     = 

OBJECT_NAME    = STARLINK-36482
OBJECT_ID      = 2026-002E
CENTER_NAME    = EARTH
REF_FRAME      = TEME
TIME_SYSTEM    = UTC
MEAN_ELEMENT_THEORY = SGP/SGP4

EPOCH          = 2026-01-23T17:26:58.204320
MEAN_MOTION    = 15.75031822
ECCENTRICITY   = .0001759
INCLINATION    = 42.9984
RA_OF_ASC_NODE = 222.5758
ARG_OF_PERICENTER = 293.1820
MEAN_ANOMALY   = 66.8864

EPHEMERIS_TYPE = 0
CLASSIFICATION_TYPE = U
NORAD_CAT_ID   = 67309
ELEMENT_SET_NO = 999
REV_AT_EPOCH   = 416
BSTAR          = .8872E-4
MEAN_MOTION_DOT = .13168E-3
MEAN_MOTION_DDOT = 0

CCSDS_OMM_VERS = 2.0
CREATION_DATE  = 
ORIGINATOR     = 

OBJECT_NAME    = STARLINK-36491
OBJECT_ID      = 2026-002F
CENTER_NAME    = EARTH
REF_FRAME      = TEME
TIME_SYSTEM    = UTC
MEAN_ELEMENT_THEORY = SGP/SGP4

EPOCH          = 2026-01-23T22:04:22.243296
MEAN_MOTION    = 15.75076753
ECCENTRICITY   = .0002338
INCLINATION    = 43.0000
RA_OF_ASC_NODE = 221.4420
ARG_OF_PERICENTER = 281.6938
MEAN_ANOMALY   = 78.3669

EPHEMERIS_TYPE = 0
CLASSIFICATION_TYPE = U
NORAD_CAT_ID   = 67310
ELEMENT_SET_NO = 999
REV_AT_EPOCH   = 419
BSTAR          = .40088E-2
MEAN_MOTION_DOT = .667697E-2
MEAN_MOTION_DDOT = 0

CCSDS_OMM_VERS = 2.0
CREATION_DATE  = 
ORIGINATOR     = 

OBJECT_NAME    = STARLINK-36495
OBJECT_ID      = 2026-002G
CENTER_NAME    = EARTH
REF_FRAME      = TEME
TIME_SYSTEM    = UTC
MEAN_ELEMENT_THEORY = SGP/SGP4

EPOCH          = 2026-01-24T12:00:00.998784
MEAN_MOTION    = 15.71352863
ECCENTRICITY   = .00016
INCLINATION    = 42.9991
RA_OF_ASC_NODE = 217.9187
ARG_OF_PERICENTER = 269.0438
MEAN_ANOMALY   = 145.8739

EPHEMERIS_TYPE = 0
CLASSIFICATION_TYPE = U
NORAD_CAT_ID   = 67311
ELEMENT_SET_NO = 999
REV_AT_EPOCH   = 447
BSTAR          = -.17222E-1
MEAN_MOTION_DOT = -.1993119E-1
MEAN_MOTION_DDOT = 0

CCSDS_OMM_VERS = 2.0
CREATION_DATE  = 
ORIGINATOR     = 

OBJECT_NAME    = STARLINK-36485
OBJECT_ID      = 2026-002H
CENTER_NAME    = EARTH
REF_FRAME      = TEME
TIME_SYSTEM    = UTC
MEAN_ELEMENT_THEORY = SGP/SGP4

EPOCH          = 2026-01-23T20:31:07.340448
MEAN_MOTION    = 15.74534924
ECCENTRICITY   = .0002238
INCLINATION    = 42.9990
RA_OF_ASC_NODE = 221.8148
ARG_OF_PERICENTER = 295.4920
MEAN_ANOMALY   = 64.5717

EPHEMERIS_TYPE = 0
CLASSIFICATION_TYPE = U
NORAD_CAT_ID   = 67312
ELEMENT_SET_NO = 999
REV_AT_EPOCH   = 418
BSTAR          = -.39428E-2
MEAN_MOTION_DOT = -.555616E-2
MEAN_MOTION_DDOT = 0

CCSDS_OMM_VERS = 2.0
CREATION_DATE  = 
ORIGINATOR     = 

OBJECT_NAME    = STARLINK-36445
OBJECT_ID      = 2026-002J
CENTER_NAME    = EARTH
REF_FRAME      = TEME
TIME_SYSTEM    = UTC
MEAN_ELEMENT_THEORY = SGP/SGP4

EPOCH          = 2026-01-23T22:01:59.210688
MEAN_MOTION    = 15.74512661
ECCENTRICITY   = .0002323
INCLINATION    = 42.9991
RA_OF_ASC_NODE = 221.4278
ARG_OF_PERICENTER = 276.7165
MEAN_ANOMALY   = 83.3440

EPHEMERIS_TYPE = 0
CLASSIFICATION_TYPE = U
NORAD_CAT_ID   = 67313
ELEMENT_SET_NO = 999
REV_AT_EPOCH   = 435
BSTAR          = -.2359E-2
MEAN_MOTION_DOT = -.340753E-2
MEAN_MOTION_DDOT = 0

CCSDS_OMM_VERS = 2.0
CREATION_DATE  = 
ORIGINATOR     = 

OBJECT_NAME    = STARLINK-36476
OBJECT_ID      = 2026-002K
CENTER_NAME    = EARTH
REF_FRAME      = TEME
TIME_SYSTEM    = UTC
MEAN_ELEMENT_THEORY = SGP/SGP4

EPOCH          = 2026-01-24T12:00:00.998784
MEAN_MOTION    = 15.71356016
ECCENTRICITY   = .0001469
INCLINATION    = 42.9993
RA_OF_ASC_NODE = 217.9051
ARG_OF_PERICENTER = 269.3115
MEAN_ANOMALY   = 151.3564

EPHEMERIS_TYPE = 0
CLASSIFICATION_TYPE = U
NORAD_CAT_ID   = 67314
ELEMENT_SET_NO = 999
REV_AT_EPOCH   = 431
BSTAR          = -.17259E-1
MEAN_MOTION_DOT = -.1997073E-1
MEAN_MOTION_DDOT = 0

CCSDS_OMM_VERS = 2.0
CREATION_DATE  = 
ORIGINATOR     = 

OBJECT_NAME    = STARLINK-36463
OBJECT_ID      = 2026-002L
CENTER_NAME    = EARTH
REF_FRAME      = TEME
TIME_SYSTEM    = UTC
MEAN_ELEMENT_THEORY = SGP/SGP4

EPOCH          = 2026-01-24T12:00:00.998784
MEAN_MOTION    = 15.71348658
ECCENTRICITY   = .0001607
INCLINATION    = 42.9990
RA_OF_ASC_NODE = 217.8951
ARG_OF_PERICENTER = 273.8964
MEAN_ANOMALY   = 150.6017

EPHEMERIS_TYPE = 0
CLASSIFICATION_TYPE = U
NORAD_CAT_ID   = 67315
ELEMENT_SET_NO = 999
REV_AT_EPOCH   = 437
BSTAR          = -.17109E-1
MEAN_MOTION_DOT = -.1981309E-1
MEAN_MOTION_DDOT = 0

CCSDS_OMM_VERS = 2.0
CREATION_DATE  = 
ORIGINATOR     = 

OBJECT_NAME    = STARLINK-36461
OBJECT_ID      = 2026-002M
CENTER_NAME    = EARTH
REF_FRAME      = TEME
TIME_SYSTEM    = UTC
MEAN_ELEMENT_THEORY = SGP/SGP4

EPOCH          = 2026-01-24T12:00:00.998784
MEAN_MOTION    = 15.71361275
ECCENTRICITY   = .0001659
INCLINATION    = 42.9990
RA_OF_ASC_NODE = 217.8900
ARG_OF_PERICENTER = 270.7299
MEAN_ANOMALY   = 155.6866

EPHEMERIS_TYPE = 0
CLASSIFICATION_TYPE = U
NORAD_CAT_ID   = 67316
ELEMENT_SET_NO = 999
REV_AT_EPOCH   = 447
BSTAR          = -.17324E-1
MEAN_MOTION_DOT = -.2004167E-1
MEAN_MOTION_DDOT = 0

CCSDS_OMM_VERS = 2.0
CREATION_DATE  = 
ORIGINATOR     = 

OBJECT_NAME    = STARLINK-36450
OBJECT_ID      = 2026-002N
CENTER_NAME    = EARTH
REF_FRAME      = TEME
TIME_SYSTEM    = UTC
MEAN_ELEMENT_THEORY = SGP/SGP4

EPOCH          = 2026-01-24T12:00:00.998784
MEAN_MOTION    = 15.71491937
ECCENTRICITY   = .000136
INCLINATION    = 42.9989
RA_OF_ASC_NODE = 217.8852
ARG_OF_PERICENTER = 261.5576
MEAN_ANOMALY   = 166.7795

EPHEMERIS_TYPE = 0
CLASSIFICATION_TYPE = U
NORAD_CAT_ID   = 67317
ELEMENT_SET_NO = 999
REV_AT_EPOCH   = 447
BSTAR          = -.19403E-1
MEAN_MOTION_DOT = -.2223104E-1
MEAN_MOTION_DDOT = 0

CCSDS_OMM_VERS = 2.0
CREATION_DATE  = 
ORIGINATOR     = 

OBJECT_NAME    = STARLINK-36498
OBJECT_ID      = 2026-002P
CENTER_NAME    = EARTH
REF_FRAME      = TEME
TIME_SYSTEM    = UTC
MEAN_ELEMENT_THEORY = SGP/SGP4

EPOCH          = 2026-01-24T12:00:00.998784
MEAN_MOTION    = 15.71359644
ECCENTRICITY   = .0001606
INCLINATION    = 42.9993
RA_OF_ASC_NODE = 217.8752
ARG_OF_PERICENTER = 275.9699
MEAN_ANOMALY   = 156.1953

EPHEMERIS_TYPE = 0
CLASSIFICATION_TYPE = U
NORAD_CAT_ID   = 67318
ELEMENT_SET_NO = 999
REV_AT_EPOCH   = 437
BSTAR          = -.17284E-1
MEAN_MOTION_DOT = -.1999967E-1
MEAN_MOTION_DDOT = 0

CCSDS_OMM_VERS = 2.0
CREATION_DATE  = 
ORIGINATOR     = 

OBJECT_NAME    = STARLINK-36470
OBJECT_ID      = 2026-002Q
CENTER_NAME    = EARTH
REF_FRAME      = TEME
TIME_SYSTEM    = UTC
MEAN_ELEMENT_THEORY = SGP/SGP4

EPOCH          = 2026-01-24T12:00:00.998784
MEAN_MOTION    = 15.71359566
ECCENTRICITY   = .0001616
INCLINATION    = 42.9990
RA_OF_ASC_NODE = 217.8804
ARG_OF_PERICENTER = 270.3437
MEAN_ANOMALY   = 159.9086

EPHEMERIS_TYPE = 0
CLASSIFICATION_TYPE = U
NORAD_CAT_ID   = 67319
ELEMENT_SET_NO = 999
REV_AT_EPOCH   = 437
BSTAR          = -.17312E-1
MEAN_MOTION_DOT = -.2002862E-1
MEAN_MOTION_DDOT = 0

